ONEWEB-0612             
1 54675U 22166AK  23332.82640510 -.00000096  00000+0 -26425-3 0  9991
2 54675  87.9252  69.3738 0002048  96.3605 263.7763 13.21825075 48865
ONEWEB-0615             
1 54676U 22166AL  23332.35329455  .00000000  00000+0 -32222-4 0  9999
2 54676  87.9264  69.4867 0001612  88.2968 271.8350 13.21828323 48345
ONEWEB-0655             
1 54677U 22166AM  23332.78066882  .00000061  00000+0  11737-3 0  9992
2 54677  87.9258  69.4049 0001704  84.3077 275.8251 13.21823712 48869
ONEWEB-0659             
1 54678U 22166AN  23332.34383427  .00001454  00000+0  34898-2 0  9991
2 54678  87.9235  69.5090 0002252 119.5692 240.5667 13.21819692 48429
ONEWEB-0685             
1 54679U 22166AP  23332.34541588  .00000038  00000+0  61462-4 0  9992
2 54679  87.9262  69.4868 0001967  78.5149 281.6206 13.21826640 48319
ONEWEB-0712             
1 54680U 22166AQ  23332.74838895  .00000007  00000+0 -16047-4 0  9994
2 54680  87.9235  54.1674 0001448 115.7693 244.3587 13.16598242 49956
ONEWEB-0714             
1 54681U 22166AR  23332.80589773 -.00000015  00000+0 -67374-4 0  9999
2 54681  87.9254  69.3819 0001694  92.0533 268.0795 13.21825165 48967
ONEWEB-0532             
1 55140U 23004A   23332.59942391  .00000032  00000+0  48984-4 0  9990
2 55140  87.9221 191.0503 0002359  89.1976 270.9426 13.17649995 44905
